NORAD_CAT_ID,OBJECT_NAME,OBJECT_TYPE,EPOCH,MEAN_MOTION,ECCENTRICITY,INCLINATION,RA_OF_ASC_NODE,ARG_OF_PERICENTER,MEAN_ANOMALY,BSTAR,MEAN_MOTION_DOT,MEAN_MOTION_DDOT,TLE_LINE0,TLE_LINE1,TLE_LINE2,SEMIMAJOR_AXIS,PERIOD,APOGEE,PERIGEE,DECAYED
53912.0,STARLINK-5059,PAYLOAD,2023-08-15 05:13:14,15.08840831,0.0001252,53.2167,202.2365,90.3531,269.7605,-1.1483e-05,-4.71e-06,0.0,0 STARLINK-5059,1 53912U 22119AC  23227.21752683 -.00000471  00000-0 -11483-4 0  9990,2 53912  53.2167 202.2365 0001252  90.3531 269.7605 15.08840831 49889,6917.878,95.438,540.609,538.877,0.0
53912.0,STARLINK-5059,PAYLOAD,2023-08-16 09:50:10,15.08841061,0.000134,53.2165,196.8847,93.349,266.7655,5.1719e-05,5.35e-06,0.0,0 STARLINK-5059,1 53912U 22119AC  23228.40984648  .00000535  00000-0  51719-4 0  9995,2 53912  53.2165 196.8847 0001340  93.3490 266.7655 15.08841061 50065,6917.877,95.437,540.669,538.815,0.0
53912.0,STARLINK-5059,PAYLOAD,2023-08-16 20:57:53,15.08830886,0.0001351,53.2166,194.8032,94.9602,265.1545,3.6337e-05,2.9e-06,0.0,0 STARLINK-5059,1 53912U 22119AC  23228.87353514  .00000290  00000-0  36337-4 0  9995,2 53912  53.2166 194.8032 0001351  94.9602 265.1545 15.08830886 50136,6917.908,95.438,540.708,538.839,0.0
53912.0,STARLINK-5059,PAYLOAD,2023-08-17 08:05:34,15.08843353,0.0001369,53.2174,192.7223,95.0704,265.0444,0.00012545,1.709e-05,0.0,0 STARLINK-5059,1 53912U 22119AC  23229.33720624  .00001709  00000-0  12545-3 0  9997,2 53912  53.2174 192.7223 0001369  95.0704 265.0444 15.08843353 50206,6917.87,95.437,540.682,538.788,0.0
53912.0,STARLINK-5059,PAYLOAD,2023-08-18 03:10:13,15.08835192,0.0001506,53.2174,189.1543,95.1846,264.9318,3.8689e-05,3.28e-06,0.0,0 STARLINK-5059,1 53912U 22119AC  23230.13209684  .00000328  00000-0  38689-4 0  9999,2 53912  53.2174 189.1543 0001506  95.1846 264.9318 15.08835192 50325,6917.895,95.438,540.802,538.718,0.0
53912.0,STARLINK-5059,PAYLOAD,2023-08-19 04:36:23,15.0884138,0.0001528,53.2172,184.3968,85.6545,274.4622,6.8891e-05,8.09e-06,0.0,0 STARLINK-5059,1 53912U 22119AC  23231.19193388  .00000809  00000-0  68891-4 0  9991,2 53912  53.2172 184.3968 0001528  85.6545 274.4622 15.08841380 50482,6917.876,95.437,540.798,538.684,0.0
53912.0,STARLINK-5059,PAYLOAD,2023-08-21 02:42:33,15.08843847,0.0001433,53.2169,175.773,87.7616,272.354,9.9904e-05,1.303e-05,0.0,0 STARLINK-5059,1 53912U 22119AC  23233.11289128  .00001303  00000-0  99904-4 0  9992,2 53912  53.2169 175.7730 0001433  87.7616 272.3540 15.08843847 50774,6917.869,95.437,540.725,538.742,0.0
53912.0,STARLINK-5059,PAYLOAD,2023-08-22 02:33:20,15.08844394,0.0001599,53.2174,171.3091,115.1168,244.999,1.035e-05,-1.23e-06,0.0,0 STARLINK-5059,1 53912U 22119AC  23234.10649162 -.00000123  00000-0  10350-4 0  9998,2 53912  53.2174 171.3091 0001599 115.1168 244.9990 15.08844394 50922,6917.867,95.437,540.838,538.626,0.0
53912.0,STARLINK-5059,PAYLOAD,2023-08-23 02:24:08,15.08841026,0.0001416,53.2166,166.8495,97.5707,262.5446,-1.2731e-05,-4.91e-06,0.0,0 STARLINK-5059,1 53912U 22119AC  23235.10009615 -.00000491  00000-0 -12731-4 0  9996,2 53912  53.2166 166.8495 0001416  97.5707 262.5446 15.08841026 51078,6917.877,95.437,540.722,538.763,0.0
53912.0,STARLINK-5059,PAYLOAD,2023-08-24 03:50:18,15.08837404,0.0001492,53.2181,162.096,99.8829,260.2332,1.087e-05,-1.15e-06,0.0,0 STARLINK-5059,1 53912U 22119AC  23236.15994089 -.00000115  00000-0  10870-4 0  9994,2 53912  53.2181 162.0960 0001492  99.8829 260.2332 15.08837404 51652,6917.888,95.438,540.785,538.721,0.0
53912.0,STARLINK-5059,PAYLOAD,2023-08-25 05:16:28,15.08846015,0.0001539,53.2187,157.3401,97.5976,262.5191,0.00012622,1.722e-05,0.0,0 STARLINK-5059,1 53912U 22119AC  23237.21977393  .00001722  00000-0  12622-3 0  9991,2 53912  53.2187 157.3401 0001539  97.5976 262.5191 15.08846015 51392,6917.862,95.437,540.792,538.662,0.0
53912.0,STARLINK-5059,PAYLOAD,2023-08-26 00:21:07,15.08836713,0.000139,53.218,153.7709,98.4034,261.7115,2.6385e-05,1.32e-06,0.0,0 STARLINK-5059,1 53912U 22119AC  23238.01466464  .00000132  00000-0  26385-4 0  9998,2 53912  53.2180 153.7709 0001390  98.4034 261.7115 15.08836713 51511,6917.89,95.438,540.717,538.794,0.0
53912.0,STARLINK-5059,PAYLOAD,2023-08-26 03:31:53,15.08840488,0.0001389,53.2177,153.1706,87.1317,272.9834,3.9552e-05,3.42e-06,0.0,0 STARLINK-5059,1 53912U 22119AC  23238.14714196  .00000342  00000-0  39552-4 0  9993,2 53912  53.2177 153.1706 0001389  87.1317 272.9834 15.08840488 51959,6917.879,95.438,540.705,538.783,0.0
53912.0,STARLINK-5059,PAYLOAD,2023-08-27 03:22:39,15.08844282,0.0001614,53.2175,148.7123,75.4357,284.6814,0.00010309,1.353e-05,0.0,0 STARLINK-5059,1 53912U 22119AC  23239.14073916  .00001353  00000-0  10309-3 0  9993,2 53912  53.2175 148.7123 0001614  75.4357 284.6814 15.08844282 51689,6917.867,95.437,540.849,538.616,0.0
53912.0,STARLINK-5059,PAYLOAD,2023-08-28 00:02:41,15.08838955,0.0001459,53.217,144.8462,84.7271,275.3887,3.5824e-05,2.82e-06,0.0,0 STARLINK-5059,1 53912U 22119AC  23240.00186473  .00000282  00000-0  35824-4 0  9993,2 53912  53.2170 144.8462 0001459  84.7271 275.3887 15.08838955 51814,6917.884,95.438,540.758,538.739,0.0
53912.0,STARLINK-5059,PAYLOAD,2023-08-28 20:42:41,15.08845567,0.0001416,53.2167,140.9812,87.2841,272.8314,1.0199e-05,-1.26e-06,0.0,0 STARLINK-5059,1 53912U 22119AC  23240.86298166 -.00000126  00000-0  10199-4 0  9996,2 53912  53.2167 140.9812 0001416  87.2841 272.8314 15.08845567 52365,6917.863,95.437,540.708,538.749,0.0
53912.0,STARLINK-5059,PAYLOAD,2023-08-28 23:53:27,15.08849929,0.0001402,53.2166,140.3852,94.6954,265.4198,3.8329e-05,3.22e-06,0.0,0 STARLINK-5059,1 53912U 22119AC  23240.99545727  .00000322  00000-0  38329-4 0  9990,2 53912  53.2166 140.3852 0001402  94.6954 265.4198 15.08849929 51963,6917.85,95.437,540.685,538.745,0.0
53912.0,STARLINK-5059,PAYLOAD,2023-08-29 03:04:13,15.08853411,0.000149,53.217,139.7912,104.2187,255.8971,7.7183e-05,9.41e-06,0.0,0 STARLINK-5059,1 53912U 22119AC  23241.12793318  .00000941  00000-0  77183-4 0  9995,2 53912  53.2170 139.7912 0001490 104.2187 255.8971 15.08853411 52403,6917.839,95.437,540.735,538.674,0.0
53912.0,STARLINK-5059,PAYLOAD,2023-08-29 23:44:15,15.08836188,0.0001406,53.2168,135.9257,89.6429,270.4724,-1.0244e-07,-2.9e-06,0.0,0 STARLINK-5059,1 53912U 22119AC  23241.98906945 -.00000290  00000-0 -10244-6 0  9997,2 53912  53.2168 135.9257 0001406  89.6429 270.4724 15.08836188 52111,6917.892,95.438,540.73,538.784,0.0
53912.0,STARLINK-5059,PAYLOAD,2023-08-31 01:10:25,15.08845763,0.0001376,53.2168,131.1697,91.0769,269.0381,4.5474e-05,4.36e-06,0.0,0 STARLINK-5059,1 53912U 22119AC  23243.04890313  .00000436  00000-0  45474-4 0  9998,2 53912  53.2168 131.1697 0001376  91.0769 269.0381 15.08845763 52276,6917.863,95.437,540.68,538.776,0.0
53912.0,STARLINK-5059,PAYLOAD,2023-08-31 05:56:34,15.0884619,0.0001412,53.217,130.2754,87.619,272.4964,5.1149e-05,5.26e-06,0.0,0 STARLINK-5059,1 53912U 22119AC  23243.24762261  .00000526  00000-0  51149-4 0  9996,2 53912  53.2170 130.2754 0001412  87.6190 272.4964 15.08846190 52723,6917.861,95.437,540.703,538.75,0.0
53912.0,STARLINK-5059,PAYLOAD,2023-09-01 01:01:13,15.08834606,0.0001392,53.217,126.7068,83.0998,277.0153,5.2125e-05,5.42e-06,0.0,0 STARLINK-5059,1 53912U 22119AC  23244.04251196  .00000542  00000-0  52125-4 0  9998,2 53912  53.2170 126.7068 0001392  83.0998 277.0153 15.08834606 52421,6917.897,95.438,540.725,538.799,0.0
53912.0,STARLINK-5059,PAYLOAD,2023-09-01 08:58:08,15.08840177,0.0001458,53.2175,125.22,82.7705,277.3453,7.8791e-05,9.66e-06,0.0,0 STARLINK-5059,1 53912U 22119AC  23244.37370881  .00000966  00000-0  78791-4 0  9994,2 53912  53.2175 125.2200 0001458  82.7705 277.3453 15.08840177 52890,6917.88,95.438,540.753,538.736,0.0
53912.0,STARLINK-5059,PAYLOAD,2023-09-01 18:30:27,15.08840054,0.0001544,53.217,123.4373,89.4043,270.7127,2.6379e-05,1.32e-06,0.0,0 STARLINK-5059,1 53912U 22119AC  23244.77115059  .00000132  00000-0  26379-4 0  9992,2 53912  53.2170 123.4373 0001544  89.4043 270.7127 15.08840054 52957,6917.88,95.438,540.813,538.677,0.0
53912.0,STARLINK-5059,PAYLOAD,2023-09-02 00:51:59,15.0884579,0.00015,53.2169,122.2483,91.0431,269.0733,1.9861e-05,2.8e-07,0.0,0 STARLINK-5059,1 53912U 22119AC  23245.03610710  .00000028  00000-0  19861-4 0  9998,2 53912  53.2169 122.2483 0001500  91.0431 269.0733 15.08845790 52570,6917.863,95.437,540.765,538.69,0.0
53912.0,STARLINK-5059,PAYLOAD,2023-09-02 08:48:55,15.08836377,0.0001531,53.217,120.7612,91.134,268.9827,-4.6868e-06,-3.63e-06,0.0,0 STARLINK-5059,1 53912U 22119AC  23245.36731400 -.00000363  00000-0 -46868-5 0  9996,2 53912  53.2170 120.7612 0001531  91.1340 268.9827 15.08836377 52622,6917.891,95.438,540.816,538.697,0.0
53912.0,STARLINK-5059,PAYLOAD,2023-09-02 18:21:14,15.08836281,0.0001316,53.2173,118.9772,95.1513,264.9629,5.1528e-05,5.32e-06,0.0,0 STARLINK-5059,1 53912U 22119AC  23245.76475346  .00000532  00000-0  51528-4 0  9998,2 53912  53.2173 118.9772 0001316  95.1513 264.9629 15.08836281 53102,6917.892,95.438,540.667,538.846,0.0
53912.0,STARLINK-5059,PAYLOAD,2023-09-03 00:42:46,15.08844103,0.0001484,53.2169,117.7881,90.7705,269.3457,0.00012338,1.676e-05,0.0,0 STARLINK-5059,1 53912U 22119AC  23246.02970766  .00001676  00000-0  12338-3 0  9999,2 53912  53.2169 117.7881 0001484  90.7705 269.3457 15.08844103 52722,6917.868,95.437,540.759,538.706,0.0
53912.0,STARLINK-5059,PAYLOAD,2023-09-03 08:39:42,15.0883581,0.0001462,53.2157,116.3015,85.2133,274.9026,1.7079e-05,-1.6e-07,0.0,0 STARLINK-5059,1 53912U 22119AC  23246.36091259 -.00000016  00000-0  17079-4 0  9993,2 53912  53.2157 116.3015 0001462  85.2133 274.9026 15.08835810 52777,6917.893,95.438,540.77,538.747,0.0
53912.0,STARLINK-5059,PAYLOAD,2023-09-04 08:30:30,15.08837561,0.0001272,53.2153,111.8394,88.9987,271.1151,1.6461e-05,-2.6e-07,0.0,0 STARLINK-5059,1 53912U 22119AC  23247.35451410 -.00000026  00000-0  16461-4 0  9997,2 53912  53.2153 111.8394 0001272  88.9987 271.1151 15.08837561 53346,6917.888,95.438,540.633,538.873,0.0
